{"fetched_at":"2026-07-10T07:58:58.795Z","source":"https://celestrak.org/NORAD/elements/gp.php?NAME=FIREFLY&FORMAT=JSON","constellation":"pixxel","records":[{"OBJECT_NAME":"FIREFLY-1","OBJECT_ID":"2025-009CW","EPOCH":"2026-07-09T18:00:45.650304","CLASSIFICATION_TYPE":"U","MEAN_MOTION":14.92732429,"ECCENTRICITY":0.000229,"INCLINATION":97.7063,"RA_OF_ASC_NODE":268.4131,"ARG_OF_PERICENTER":250.3504,"MEAN_ANOMALY":109.7468,"EPHEMERIS_TYPE":0,"NORAD_CAT_ID":62701,"ELEMENT_SET_NO":999,"REV_AT_EPOCH":8068,"BSTAR":0.000092646,"MEAN_MOTION_DOT":0.00000901,"MEAN_MOTION_DDOT":0},{"OBJECT_NAME":"FIREFLY-2","OBJECT_ID":"2025-009CZ","EPOCH":"2026-07-09T17:28:55.227072","CLASSIFICATION_TYPE":"U","MEAN_MOTION":14.92728319,"ECCENTRICITY":0.0006905,"INCLINATION":97.702,"RA_OF_ASC_NODE":268.1642,"ARG_OF_PERICENTER":20.734,"MEAN_ANOMALY":339.4159,"EPHEMERIS_TYPE":0,"NORAD_CAT_ID":62704,"ELEMENT_SET_NO":999,"REV_AT_EPOCH":8068,"BSTAR":0.000061557,"MEAN_MOTION_DOT":0.0000058,"MEAN_MOTION_DDOT":0},{"OBJECT_NAME":"FIREFLY-3","OBJECT_ID":"2025-009DF","EPOCH":"2026-07-09T16:57:44.958240","CLASSIFICATION_TYPE":"U","MEAN_MOTION":14.92793094,"ECCENTRICITY":0.0004876,"INCLINATION":97.7053,"RA_OF_ASC_NODE":268.4001,"ARG_OF_PERICENTER":85.6874,"MEAN_ANOMALY":274.4902,"EPHEMERIS_TYPE":0,"NORAD_CAT_ID":62710,"ELEMENT_SET_NO":999,"REV_AT_EPOCH":8069,"BSTAR":0.000099606,"MEAN_MOTION_DOT":0.00000974,"MEAN_MOTION_DDOT":0}]}
