FIREFLY-1               
1 62701U 25009CW  26190.75052836  .00000901  00000+0  92646-4 0  9996
2 62701  97.7063 268.4131 0002290 250.3504 109.7468 14.92732429 80687
FIREFLY-2               
1 62704U 25009CZ  26190.72841698  .00000580  00000+0  61557-4 0  9998
2 62704  97.7020 268.1642 0006905  20.7340 339.4159 14.92728319 80683
FIREFLY-3               
1 62710U 25009DF  26190.70677035  .00000974  00000+0  99606-4 0  9998
2 62710  97.7053 268.4001 0004876  85.6874 274.4902 14.92793094 80692
